{
    "links": {
        "self": "http://www.neowsapp.com/rest/v1/neo/54017110?api_key=iIulBulltgU6a56xZRHN4H3l9WmuAYTsLGpBGhQ2"
    },
    "id": "54017110",
    "neo_reference_id": "54017110",
    "name": "(2020 JB3)",
    "designation": "2020 JB3",
    "nasa_jpl_url": "http://ssd.jpl.nasa.gov/sbdb.cgi?sstr=54017110",
    "absolute_magnitude_h": 23.226,
    "estimated_diameter": {
        "kilometers": {
            "estimated_diameter_min": 0.0601665316,
            "estimated_diameter_max": 0.1345364546
        },
        "meters": {
            "estimated_diameter_min": 60.1665316032,
            "estimated_diameter_max": 134.536454635
        },
        "miles": {
            "estimated_diameter_min": 0.0373857379,
            "estimated_diameter_max": 0.0835970514
        },
        "feet": {
            "estimated_diameter_min": 197.3967635449,
            "estimated_diameter_max": 441.3925818248
        }
    },
    "is_potentially_hazardous_asteroid": false,
    "close_approach_data": [
        {
            "close_approach_date": "2020-06-14",
            "close_approach_date_full": "2020-Jun-14 08:26",
            "epoch_date_close_approach": 1592123160000,
            "relative_velocity": {
                "kilometers_per_second": "15.090823903",
                "kilometers_per_hour": "54326.966050652",
                "miles_per_hour": "33756.6639885288"
            },
            "miss_distance": {
                "astronomical": "0.1977059453",
                "lunar": "76.9076127217",
                "kilometers": "29576388.303216511",
                "miles": "18377915.4963534118"
            },
            "orbiting_body": "Earth"
        }
    ],
    "orbital_data": {
        "orbit_id": "2",
        "orbit_determination_date": "2020-05-24 07:18:33",
        "first_observation_date": "2020-05-15",
        "last_observation_date": "2020-05-24",
        "data_arc_in_days": 9,
        "observations_used": 18,
        "orbit_uncertainty": "9",
        "minimum_orbit_intersection": ".030496",
        "jupiter_tisserand_invariant": "3.781",
        "epoch_osculation": "2458986.5",
        "eccentricity": ".6768156691344182",
        "semi_major_axis": "1.781795324678308",
        "inclination": "1.789402324902968",
        "ascending_node_longitude": "337.2385088756798",
        "orbital_period": "868.7306602898649",
        "perihelion_distance": ".5758483297455813",
        "perihelion_argument": "6.721609852154864",
        "aphelion_distance": "2.987742319611035",
        "perihelion_time": "2459061.884154683371",
        "mean_anomaly": "328.7609786018621",
        "mean_motion": ".4143977143386198",
        "equinox": "J2000",
        "orbit_class": {
            "orbit_class_type": "APO",
            "orbit_class_description": "Near-Earth asteroid orbits which cross the Earth’s orbit similar to that of 1862 Apollo",
            "orbit_class_range": "a (semi-major axis) > 1.0 AU; q (perihelion) < 1.017 AU"
        }
    },
    "is_sentry_object": false
}